ORBCOMM FM115 [+]       
1 41186U 15081H   24093.39744798  .00001195  00000+0  27918-3 0  9999
2 41186  47.0001 332.7706 0000973 230.4565 129.6235 14.60516032443294
ORBCOMM FM108 [+]       
1 41187U 15081J   24093.54280712  .00001372  00000+0  34347-3 0  9999
2 41187  47.0063  25.1879 0001985  77.9039 282.2068 14.56418865442605
ORBCOMM FM117 [+]       
1 41188U 15081K   24093.50864976  .00001372  00000+0  34337-3 0  9995
2 41188  47.0026  24.2552 0002391  93.3697 266.7462 14.56423818442617
ORBCOMM FM116 [+]       
1 41189U 15081L   24093.08632784  .00000951  00000+0  24938-3 0  9997
2 41189  47.0008 116.0611 0002439 223.2073 136.8621 14.56442708441385
